HAWK-2B                 
1 47508U 21006CZ  26068.67629241  .00009474  00000+0  29651-3 0  9991
2 47508  97.2334 114.1140 0007102 185.9063 174.2098 15.33301353284246
STARLINK-33785          
1 63516U 25071Z   26068.47656263  .00014022  00000+0  48481-3 0  9993
2 63516  53.1578 141.1297 0001157  97.0782 263.0351 15.30190164 52719
